NORAD_CAT_ID,OBJECT_NAME,OBJECT_TYPE,EPOCH,MEAN_MOTION,ECCENTRICITY,INCLINATION,RA_OF_ASC_NODE,ARG_OF_PERICENTER,MEAN_ANOMALY,BSTAR,MEAN_MOTION_DOT,MEAN_MOTION_DDOT,TLE_LINE0,TLE_LINE1,TLE_LINE2,SEMIMAJOR_AXIS,PERIOD,APOGEE,PERIGEE,DECAYED
52126.0,STARLINK-3732,PAYLOAD,2023-09-28 20:20:05,15.08850147,0.0001454,53.2152,117.2459,89.5927,270.5231,0.00041434,6.314e-05,0.0,0 STARLINK-3732,1 52126U 22029AQ  23271.84728396  .00006314  00000-0  41434-3 0  9996,2 52126  53.2152 117.2459 0001454  89.5927 270.5231 15.08850147 86136,6917.849,95.437,540.72,538.709,0.0
52126.0,STARLINK-3732,PAYLOAD,2023-09-28 23:30:51,15.08853165,0.0001444,53.2153,116.6507,90.6633,269.4525,0.00044277,6.768e-05,0.0,0 STARLINK-3732,1 52126U 22029AQ  23271.97976234  .00006768  00000-0  44277-3 0  9997,2 52126  53.2153 116.6507 0001444  90.6633 269.4525 15.08853165 86158,6917.84,95.437,540.704,538.706,0.0
52126.0,STARLINK-3732,PAYLOAD,2023-09-29 18:35:28,15.08849133,0.0001408,53.2161,113.0792,105.6483,254.4665,0.00020045,2.904e-05,0.0,0 STARLINK-3732,1 52126U 22029AQ  23272.77464011  .00002904  00000-0  20045-3 0  9996,2 52126  53.2161 113.0792 0001408 105.6483 254.4665 15.08849133 86276,6917.852,95.437,540.692,538.743,0.0
52126.0,STARLINK-3732,PAYLOAD,2023-09-29 20:10:52,15.08849702,0.0001281,53.2165,112.7813,95.4637,264.6501,0.00017239,2.457e-05,0.0,0 STARLINK-3732,1 52126U 22029AQ  23272.84087974  .00002457  00000-0  17239-3 0  9997,2 52126  53.2165 112.7813 0001281  95.4637 264.6501 15.08849702 86281,6917.851,95.437,540.602,538.83,0.0
52126.0,STARLINK-3732,PAYLOAD,2023-09-30 18:26:16,15.08842421,0.0001259,53.2156,108.6227,81.3102,278.8033,-1.0519e-05,-4.55e-06,0.0,0 STARLINK-3732,1 52126U 22029AQ  23273.76824261 -.00000455  00000-0 -10519-4 0  9990,2 52126  53.2156 108.6227 0001259  81.3102 278.8033 15.08842421 86424,6917.873,95.437,540.609,538.867,0.0
52126.0,STARLINK-3732,PAYLOAD,2023-10-01 13:30:53,15.08843887,0.0001207,53.2155,105.0543,83.9227,276.1902,0.00011825,1.595e-05,0.0,0 STARLINK-3732,1 52126U 22029AQ  23274.56312016  .00001595  00000-0  11825-3 0  9993,2 52126  53.2155 105.0543 0001207  83.9227 276.1902 15.08843887 86540,6917.869,95.437,540.568,538.899,0.0
52126.0,STARLINK-3732,PAYLOAD,2023-10-01 19:52:25,15.0885223,0.0001199,53.2155,103.8648,86.4372,273.6757,0.0001332,1.833e-05,0.0,0 STARLINK-3732,1 52126U 22029AQ  23274.82807517  .00001833  00000-0  13320-3 0  9994,2 52126  53.2155 103.8648 0001199  86.4372 273.6757 15.08852230 86587,6917.843,95.437,540.537,538.879,0.0
52126.0,STARLINK-3732,PAYLOAD,2023-10-02 05:24:44,15.08847094,0.0001265,53.2163,102.0819,88.0942,272.0195,0.00012439,1.693e-05,0.0,0 STARLINK-3732,1 52126U 22029AQ  23275.22551663  .00001693  00000-0  12439-3 0  9991,2 52126  53.2163 102.0819 0001265  88.0942 272.0195 15.08847094 86640,6917.859,95.437,540.599,538.849,0.0
52126.0,STARLINK-3732,PAYLOAD,2023-10-02 19:43:13,15.08833774,0.0001369,53.2165,99.4074,95.8187,264.2961,-4.8124e-05,-1.054e-05,0.0,0 STARLINK-3732,1 52126U 22029AQ  23275.82168520 -.00001054  00000-0 -48124-4 0  9997,2 52126  53.2165  99.4074 0001369  95.8187 264.2961 15.08833774 86730,6917.899,95.438,540.711,538.817,0.0
52126.0,STARLINK-3732,PAYLOAD,2023-10-03 05:15:32,15.08836053,0.0001413,53.2165,97.6225,90.629,269.4864,-4.8468e-07,-2.96e-06,0.0,0 STARLINK-3732,1 52126U 22029AQ  23276.21912436 -.00000296  00000-0 -48468-6 0  9994,2 52126  53.2165  97.6225 0001413  90.6290 269.4864 15.08836053 86794,6917.892,95.438,540.735,538.78,0.0
52126.0,STARLINK-3732,PAYLOAD,2023-10-03 19:34:00,15.0884562,0.0001321,53.215,94.9445,88.325,271.7894,0.00061518,9.518e-05,0.0,0 STARLINK-3732,1 52126U 22029AQ  23276.81528470  .00009518  00000-0  61518-3 0  9993,2 52126  53.2150  94.9445 0001321  88.3250 271.7894 15.08845620 86889,6917.863,95.437,540.642,538.814,0.0
52126.0,STARLINK-3732,PAYLOAD,2023-10-04 17:49:24,15.08847196,0.0001359,53.2153,90.7809,82.2967,277.818,0.00034636,5.23e-05,0.0,0 STARLINK-3732,1 52126U 22029AQ  23277.74264431  .00005230  00000-0  34636-3 0  9998,2 52126  53.2153  90.7809 0001359  82.2967 277.8180 15.08847196 87021,6917.858,95.437,540.664,538.783,0.0
52126.0,STARLINK-3732,PAYLOAD,2023-10-04 21:00:10,15.08852583,0.0001375,53.2154,90.1861,81.0236,279.0911,0.00043444,6.635e-05,0.0,0 STARLINK-3732,1 52126U 22029AQ  23277.87512260  .00006635  00000-0  43444-3 0  9995,2 52126  53.2154  90.1861 0001375  81.0236 279.0911 15.08852583 87042,6917.842,95.437,540.658,538.756,0.0
52126.0,STARLINK-3732,PAYLOAD,2023-10-05 11:18:39,15.08840638,0.0001652,53.2152,87.5104,84.4836,275.6344,0.00012324,1.674e-05,0.0,0 STARLINK-3732,1 52126U 22029AQ  23278.47128729  .00001674  00000-0  12324-3 0  9996,2 52126  53.2152  87.5104 0001652  84.4836 275.6344 15.08840638 87131,6917.878,95.438,540.886,538.601,0.0
52126.0,STARLINK-3732,PAYLOAD,2023-10-05 17:40:11,15.08838961,0.0001486,53.2158,86.3205,85.5976,274.5186,6.8231e-05,7.98e-06,0.0,0 STARLINK-3732,1 52126U 22029AQ  23278.73624740  .00000798  00000-0  68231-4 0  9994,2 52126  53.2158  86.3205 0001486  85.5976 274.5186 15.08838961 87170,6917.884,95.438,540.777,538.721,0.0
52126.0,STARLINK-3732,PAYLOAD,2023-10-06 11:09:26,15.08841483,0.0001443,53.2162,83.0511,79.2819,280.8336,7.6609e-05,9.32e-06,0.0,0 STARLINK-3732,1 52126U 22029AQ  23279.46488933  .00000932  00000-0  76609-4 0  9995,2 52126  53.2162  83.0511 0001443  79.2819 280.8336 15.08841483 87280,6917.876,95.437,540.739,538.743,0.0
52126.0,STARLINK-3732,PAYLOAD,2023-10-06 17:30:58,15.08845976,0.0001292,53.2161,81.8597,88.5842,271.5298,9.8482e-05,1.28e-05,0.0,0 STARLINK-3732,1 52126U 22029AQ  23279.72984695  .00001280  00000-0  98482-4 0  9990,2 52126  53.2161  81.8597 0001292  88.5842 271.5298 15.08845976 87320,6917.862,95.437,540.621,538.833,0.0
52126.0,STARLINK-3732,PAYLOAD,2023-10-07 14:11:00,15.08837617,0.0001364,53.217,77.9953,94.3322,265.7826,0.0003698,5.602e-05,0.0,0 STARLINK-3732,1 52126U 22029AQ  23280.59097291  .00005602  00000-0  36980-3 0  9990,2 52126  53.2170  77.9953 0001364  94.3322 265.7826 15.08837617 87459,6917.888,95.438,540.696,538.809,0.0
52126.0,STARLINK-3732,PAYLOAD,2023-10-07 17:21:45,15.08845278,0.0001427,53.2171,77.4007,95.7548,264.3607,0.0002087,3.036e-05,0.0,0 STARLINK-3732,1 52126U 22029AQ  23280.72344806  .00003036  00000-0  20870-3 0  9992,2 52126  53.2171  77.4007 0001427  95.7548 264.3607 15.08845278 87476,6917.864,95.437,540.716,538.742,0.0
52126.0,STARLINK-3732,PAYLOAD,2023-10-08 10:51:00,15.08840988,0.0001345,53.2172,74.1306,88.0206,272.0941,0.00012232,1.659e-05,0.0,0 STARLINK-3732,1 52126U 22029AQ  23281.45208995  .00001659  00000-0  12232-3 0  9993,2 52126  53.2172  74.1306 0001345  88.0206 272.0941 15.08840988 87580,6917.877,95.437,540.673,538.812,0.0
52126.0,STARLINK-3732,PAYLOAD,2023-10-08 14:01:46,15.08841927,0.0001315,53.2173,73.5357,88.3145,271.7998,0.00010539,1.39e-05,0.0,0 STARLINK-3732,1 52126U 22029AQ  23281.58456919  .00001390  00000-0  10539-3 0  9998,2 52126  53.2173  73.5357 0001315  88.3145 271.7998 15.08841927 87607,6917.874,95.437,540.649,538.83,0.0
52126.0,STARLINK-3732,PAYLOAD,2023-10-08 20:23:18,15.08848769,0.0001477,53.217,72.3436,96.0114,264.1046,0.00014275,1.985e-05,0.0,0 STARLINK-3732,1 52126U 22029AQ  23281.84952424  .00001985  00000-0  14275-3 0  9990,2 52126  53.2170  72.3436 0001477  96.0114 264.1046 15.08848769 87645,6917.854,95.437,540.74,538.697,0.0
52126.0,STARLINK-3732,PAYLOAD,2023-10-09 02:44:52,15.08833928,0.0001205,53.2172,71.1567,95.0863,265.0267,-5.5132e-05,-1.165e-05,0.0,0 STARLINK-3732,1 52126U 22029AQ  23282.11449109 -.00001165  00000-0 -55132-4 0  9992,2 52126  53.2172  71.1567 0001205  95.0863 265.0267 15.08833928 87688,6917.899,95.438,540.598,538.93,0.0
52126.0,STARLINK-3732,PAYLOAD,2023-10-09 13:52:33,15.08839298,0.0001535,53.217,69.0742,99.6121,260.5044,1.9145e-05,1.7e-07,0.0,0 STARLINK-3732,1 52126U 22029AQ  23282.57816963  .00000017  00000-0  19145-4 0  9995,2 52126  53.2170  69.0742 0001535  99.6121 260.5044 15.08839298 87757,6917.883,95.438,540.809,538.686,0.0
52126.0,STARLINK-3732,PAYLOAD,2023-10-09 17:03:19,15.08844496,0.0001399,53.2169,68.4803,95.2584,264.8568,8.836e-05,1.119e-05,0.0,0 STARLINK-3732,1 52126U 22029AQ  23282.71064667  .00001119  00000-0  88360-4 0  9996,2 52126  53.2169  68.4803 0001399  95.2584 264.8568 15.08844496 87775,6917.867,95.437,540.699,538.764,0.0
52126.0,STARLINK-3732,PAYLOAD,2023-10-10 10:32:34,15.08840599,0.0001481,53.2176,65.2097,95.0083,265.1078,4.0462e-05,3.56e-06,0.0,0 STARLINK-3732,1 52126U 22029AQ  23283.43929011  .00000356  00000-0  40462-4 0  9992,2 52126  53.2176  65.2097 0001481  95.0083 265.1078 15.08840599 87889,6917.879,95.438,540.768,538.719,0.0
52126.0,STARLINK-3732,PAYLOAD,2023-10-10 13:43:20,15.08844751,0.0001488,53.2184,64.6171,97.527,262.5891,0.00011941,1.613e-05,0.0,0 STARLINK-3732,1 52126U 22029AQ  23283.57176738  .00001613  00000-0  11941-3 0  9993,2 52126  53.2184  64.6171 0001488  97.5270 262.5891 15.08844751 87907,6917.866,95.437,540.76,538.701,0.0
52126.0,STARLINK-3732,PAYLOAD,2023-10-10 16:54:06,15.08849802,0.0001458,53.2178,64.0218,95.066,265.0499,0.00019299,2.786e-05,0.0,0 STARLINK-3732,1 52126U 22029AQ  23283.70424447  .00002786  00000-0  19299-3 0  9997,2 52126  53.2178  64.0218 0001458  95.0660 265.0499 15.08849802 87925,6917.85,95.437,540.724,538.707,0.0
52126.0,STARLINK-3732,PAYLOAD,2023-10-11 02:26:25,15.08840922,0.0001893,53.2175,62.2345,83.2652,276.8555,-2.4915e-05,-6.85e-06,0.0,0 STARLINK-3732,1 52126U 22029AQ  23284.10168676 -.00000685  00000-0 -24915-4 0  9991,2 52126  53.2175  62.2345 0001893  83.2652 276.8555 15.08840922 87989,6917.878,95.437,541.052,538.433,0.0
52126.0,STARLINK-3732,PAYLOAD,2023-10-11 10:23:22,15.08832449,0.0001783,53.2178,60.7484,84.0103,276.1092,3.4721e-05,2.64e-06,0.0,0 STARLINK-3732,1 52126U 22029AQ  23284.43289592  .00000264  00000-0  34721-4 0  9995,2 52126  53.2178  60.7484 0001783  84.0103 276.1092 15.08832449 88038,6917.903,95.438,541.002,538.535,0.0
